CHINASAT 2C (ZX 2C)     
1 41021U 15063A   17345.93859736 -.00000330  00000-0  00000-0 0  9990
2 41021   0.0208 217.3435 0004781 107.3636 197.4549  1.00272794  7830
